code,name,lat_degrees,lat_minutes,lat_seconds,lat_direction,lon_degrees,lon_minutes,lon_seconds,lon_direction,magnetic_variation,hidden
VCXYZ,264th,49,6,6,N,122,29,36,W,-16,FALSE
VCTRD,3road,49,5,23,N,122,7,29,W,-16,FALSE
VCBBB,91 Interchange,49,5,29,N,122,53,45,W,-16,FALSE
VCACT,Active Pass,48,52,24,N,123,18,18,W,-16,FALSE
VCADM,Admirals,48,27,30,N,123,25,13,W,-16,FALSE
VACHG,Air Canada Hangar,49,11,42,N,123,9,18,W,-16,FALSE
VCAHD,Albert Head,48,23,1,N,123,29,7,W,-16,FALSE
VCABN,Albion,49,11,12,N,122,33,36,W,-16,FALSE
VCGRV,Aldergrove,49,3,30,N,122,28,12,W,-16,FALSE
VCARN,Arnold,49,1,0,N,122,9,0,W,-16,FALSE
VCATO,Automall,49,3,29,N,122,48,25,W,-16,FALSE
VCBKR,Baker,48,57,42,N,122,13,24,W,-16,FALSE
VCBKN,Beacon Hill,48,24,16,N,123,21,9,W,-16,FALSE
VCBVR,Beaver Point,48,46,18,N,123,22,18,W,-16,FALSE
VCBBE,Beebe,49,9,0,N,123,19,0,W,-16,FALSE
VCBPT,Birch Point,48,56,36,N,122,49,6,W,-16,FALSE
VCBSP,Blackie Spit,49,3,34,N,122,52,47,W,-16,FALSE
VCBUE,Blue,49,14,0,N,123,26,0,W,-16,FALSE
VCBHB,Boat Harbour,49,5,30,N,123,47,55,W,-16,FALSE
VCBOW,Bowen,49,20,18,N,123,25,30,W,-16,FALSE
VCBNL,Brannen Lake,49,12,50,N,124,3,15,W,-16,FALSE
VCBWB,Brentwood Bay,48,34,48,N,123,29,12,W,-16,FALSE
VCBUF,Buffalo,49,4,42,N,124,5,0,W,-16,FALSE
VCHEM,Chemainus,48,56,6,N,123,42,6,W,-16,FALSE
VCCHY,Cherry Point,48,53,36,N,122,47,24,W,-16,FALSE
VCCYB,Clayburn,49,6,36,N,122,14,54,W,-16,FALSE
VCCLV,Cloverdale,49,6,42,N,122,43,24,W,-16,FALSE
VCPYL,Coal Pile,49,1,12,N,123,9,36,W,-16,FALSE
VCOHO,Coho,49,16,54,N,123,18,42,W,-16,FALSE
VCCOR,Cordova Bay,48,31,12,N,123,20,36,W,-16,FALSE
VCCRT,Courthouse,49,6,18,N,122,49,54,W,-16,FALSE
VCCOW,Cowichan Bay,48,44,30,N,123,36,18,W,-16,FALSE
VCDRC,D'arcy Island,48,34,0,N,123,16,42,W,-16,FALSE
VCDKY,Dockyard,48,26,14,N,123,26,10,W,-16,FALSE
VCDRY,Dory,49,15,42,N,123,30,0,W,-16,FALSE
VCEST,East Point,48,47,0,N,123,2,48,W,-16,FALSE
VCEDG,Edge,49,0,0,N,123,16,42,W,-16,FALSE
VCEMY,Emmy,49,4,12,N,122,20,26,W,-16,FALSE
VCENT,Entrance Island,49,12,24,N,123,48,24,W,-16,FALSE
VCEVR,Everson,48,55,48,N,122,19,24,W,-16,FALSE
VCXIT,Exit,49,11,48,N,123,30,48,W,-16,FALSE
VCFNL,Finlayson,48,30,24,N,123,31,54,W,-16,FALSE
VCFLD,Flounder,49,7,0,N,123,30,0,W,-16,FALSE
VCLNG,Fort Langley,49,10,0,N,122,33,6,W,-16,FALSE
VCFRZ,Fraser Bridge,49,9,36,N,122,56,36,W,-16,FALSE
VCGAB,Gabriola,49,8,6,N,123,42,18,W,-16,FALSE
VCGAN,Ganges,49,50,30,N,123,27,54,W,-16,FALSE
VCGAR,Garry Point,49,7,42,N,123,13,12,W,-16,FALSE
VCGAS,Gas Station,49,5,30,N,122,57,24,W,-16,FALSE
VCGLN,Glen Valley,49,7,36,N,122,25,42,W,-16,FALSE
VCGBL,Golf Ball,49,12,0,N,123,12,30,W,-16,FALSE
VCGOW,Gower,49,23,0,N,123,32,0,W,-16,FALSE
VCGRA,Gravel Pit,49,4,4,N,123,55,54,W,-16,FALSE
VCGRE,Greenhouse,49,4,0,N,122,9,18,W,-16,FALSE
VCGUL,Gulff,49,0,0,N,123,19,54,W,-16,FALSE
VCHAD,Haida,49,19,24,N,123,27,12,W,-16,FALSE
VCHMD,Hammond Mill,49,12,18,N,122,38,54,W,-16,FALSE
VCHRS,Horseshoe,49,22,42,N,123,16,54,W,-16,FALSE
VCIND,Indian,49,22,30,N,122,53,6,W,-16,FALSE
VCONA,Iona,49,13,24,N,123,12,30,W,-16,FALSE
VCJER,Jericho,49,17,12,N,123,12,12,W,-16,FALSE
VCJTY,Jetty,49,13,0,N,123,13,18,W,-16,FALSE
VCJRJ,Jorja,49,13,42,N,123,32,36,W,-16,FALSE
VCKER,Kerri,49,14,42,N,123,11,36,W,-16,FALSE
VCKLH,Kilgard,49,3,12,N,122,12,6,W,-16,FALSE
VCLFL,Landfill,49,6,6,N,123,0,24,W,-16,FALSE
VCLSG,Lions Gate,49,19,24,N,123,8,30,W,-16,FALSE
VCLDN,Lynden,48,57,24,N,122,27,24,W,-16,FALSE
VCMTT,Metrotown,49,13,48,N,123,0,18,W,-16,FALSE
VCMID,Midpoints,49,18,18,N,123,15,12,W,-16,FALSE
VCMLK,Mill Lake,49,2,36,N,122,18,54,W,-16,FALSE
VCMTN,Mill Town,49,12,12,N,123,8,48,W,-16,FALSE
VCMSB,Mission Bridge,49,7,24,N,122,18,24,W,-16,FALSE
VCMTY,Monty,48,56,0,N,123,22,30,W,-16,FALSE
VCMOR,Moresby Island,48,42,42,N,123,18,0,W,-16,FALSE
VCNEW,Newton,49,8,24,N,122,50,36,W,-16,FALSE
VCNUT,Nutbe,49,19,36,N,123,36,30,W,-16,FALSE
VCOAK,Oak Bridge,49,12,0,N,123,7,36,W,-16,FALSE
VCOKP,Okopi,49,1,42,N,123,24,24,W,-16,FALSE
VCORC,Orca,49,11,24,N,123,24,54,W,-16,FALSE
VCPAJ,Pajos,49,7,18,N,123,11,24,W,-16,FALSE
VCPAS,Passage,49,19,36,N,123,19,12,W,-16,FALSE
VCPAT,Patullo Bridge,49,12,30,N,122,53,30,W,-16,FALSE
VCPLK,Pitt Lake,49,21,18,N,122,35,42,W,-16,FALSE
VCPIT,Pitt Meadows,49,13,0,N,122,42,54,W,-16,FALSE
VCATK,Point Atkinson,49,20,6,N,123,16,0,W,-16,FALSE
VCGRY,Point Grey,49,16,0,N,123,16,54,W,-16,FALSE
VCPTT,Point Roberts,48,58,30,N,123,1,30,W,-16,FALSE
VCPPY,Poppy,49,4,12,N,122,32,12,W,-16,FALSE
VCPOR,Porlier,49,1,0,N,123,35,6,W,-16,FALSE
VCPMN,Port Mann,49,13,18,N,122,49,0,W,-16,FALSE
VCPMD,Port Moody,49,17,18,N,122,49,42,W,-16,FALSE
VCQEP,Qe Park,49,14,18,N,123,7,24,W,-16,FALSE
VCRRY,Rail Yard,49,15,42,N,122,46,6,W,-16,FALSE
VCRMD,Richmond Square,49,9,30,N,123,7,48,W,-16,FALSE
VCRKY,Rocky,48,58,36,N,122,20,24,W,-16,FALSE
VCSAL,Salmon,49,11,0,N,123,22,0,W,-16,FALSE
VCSAM,Samuel Island,48,49,30,N,123,12,54,W,-16,FALSE
VCSAN,Sandheads,49,6,18,N,123,18,6,W,-16,FALSE
VCFAR,Seafair,49,8,48,N,123,13,30,W,-16,FALSE
VCSEC,Second Narrows,49,18,18,N,123,1,6,W,-16,FALSE
VCSEV,Seventeens,49,3,30,N,123,3,24,W,-16,FALSE
VCSHW,Shawnigan Lake,48,38,30,N,123,38,30,W,-16,FALSE
VCSNK,Snake Island,49,12,54,N,123,53,6,W,-16,FALSE
VCSOM,Somenos Lake,48,48,12,N,123,42,18,W,-16,FALSE
VCSOO,Sooke Lake,48,34,24,N,123,40,54,W,-16,FALSE
VCCPL,South Cement Plant,49,8,30,N,123,0,36,W,-16,FALSE
VCSPR,Spring,49,17,12,N,123,17,30,W,-16,FALSE
VCSTE,Steel,49,13,12,N,123,23,12,W,-16,FALSE
VCSDY,Strdy,48,55,42,N,123,20,18,W,-16,FALSE
VCSRT,Stuart Island,48,41,12,N,123,13,54,W,-16,FALSE
VCSWN,Swaneset,49,18,30,N,122,39,48,W,-16,FALSE
VCTEE,Teehar,49,4,42,N,123,29,42,W,-16,FALSE
VCTRA,Terra-Nova,49,10,18,N,123,14,0,W,-16,FALSE
VCIII,Third Beach,49,18,30,N,123,10,12,W,-16,FALSE
VCTRV,Toriv,49,9,18,N,123,30,24,W,-16,FALSE
VCTVN,Tovan,48,52,24,N,123,13,0,W,-16,FALSE
VCTVC,Tovic,48,55,30,N,123,17,42,W,-16,FALSE
VCTUP,Tupor,49,4,0,N,123,26,48,W,-16,FALSE
VCVAL,Valdez,49,4,42,N,123,39,24,W,-16,FALSE
VCVES,Vesuvius Bay,48,52,0,N,123,33,24,W,-16,FALSE
VCVOR,Vor,49,4,36,N,123,8,54,W,-16,FALSE
VCWPT,Westpoint,48,58,18,N,123,5,0,W,-16,FALSE
VCWWL,Westwood Lake,49,10,0,N,124,0,0,W,-16,FALSE
VCWHT,White Rock,49,0,12,N,122,45,0,W,-16,FALSE
VCYPT,Yellow Point,49,2,20,N,123,44,50,W,-16,FALSE